start=new Date('2021-09-23T00:00:00.000Z').valueOf();
sats=[{"OBJECT_NAME":"STARLINK-1882","MEAN_ELEMENT_THEORY":"SGP4","REV_AT_EPOCH":"5126","MEAN_MOTION_DOT":"-0.00000151","CENTER_NAME":"EARTH","INCLINATION":"53.0549","ARG_OF_PERICENTER":"97.0881","SITE":"AFETR","REF_FRAME":"TEME","TLE_LINE1":"1 46784U 20074AX  21265.55803215 -.00000151  00000-0  87521-5 0  9993","NORAD_CAT_ID":"46784","TLE_LINE2":"2 46784  53.0549  65.0629 0001524  97.0881 263.0281 15.06399290 51260","OBJECT_ID":"2020-074AX","OBJECT_TYPE":"PAYLOAD","MEAN_MOTION_DDOT":"0.0000000000000","TIME_SYSTEM":"UTC","COUNTRY_CODE":"US","DECAY_DATE":null,"MEAN_MOTION":"15.06399290","EPOCH":"2021-09-22T13:23:33.977760","PERIAPSIS":"546.160","BSTAR":"0.00000875210000","CLASSIFICATION_TYPE":"U","LAUNCH_DATE":"2020-10-24","RA_OF_ASC_NODE":"65.0629","FILE":"3123736","APOAPSIS":"548.271","RCS_SIZE":"LARGE","MEAN_ANOMALY":"263.0281","EPHEMERIS_TYPE":"0","PERIOD":"95.592","ECCENTRICITY":"0.00015240","GP_ID":"185268765","ELEMENT_SET_NO":"999","SEMIMAJOR_AXIS":"6925.351"},{"LAUNCH_DATE":"2020-10-24","BSTAR":"0.00004607800000","CLASSIFICATION_TYPE":"U","EPOCH":"2021-09-22T17:48:56.979360","PERIAPSIS":"541.921","DECAY_DATE":null,"MEAN_MOTION":"15.06404474","COUNTRY_CODE":"US","FILE":"3123736","RA_OF_ASC_NODE":"64.2505","PERIOD":"95.592","MEAN_ANOMALY":"238.0799","EPHEMERIS_TYPE":"0","APOAPSIS":"552.479","RCS_SIZE":"LARGE","SEMIMAJOR_AXIS":"6925.335","ELEMENT_SET_NO":"999","GP_ID":"185268036","ECCENTRICITY":"0.00076230","REV_AT_EPOCH":"5129","MEAN_MOTION_DOT":"0.00000403","CENTER_NAME":"EARTH","OBJECT_NAME":"STARLINK-1883","MEAN_ELEMENT_THEORY":"SGP4","REF_FRAME":"TEME","SITE":"AFETR","TLE_LINE1":"1 46785U 20074AY  21265.74232615  .00000403  00000-0  46078-4 0  9995","INCLINATION":"53.0560","ARG_OF_PERICENTER":"122.0931","OBJECT_ID":"2020-074AY","NORAD_CAT_ID":"46785","TLE_LINE2":"2 46785  53.0560  64.2505 0007623 122.0931 238.0799 15.06404474 51299","TIME_SYSTEM":"UTC","MEAN_MOTION_DDOT":"0.0000000000000","OBJECT_TYPE":"PAYLOAD"},{"SITE":"AFETR","REF_FRAME":"TEME","TLE_LINE1":"1 46786U 20074AZ  21265.65568083  .00001135  00000-0  95092-4 0  9990","INCLINATION":"53.0523","ARG_OF_PERICENTER":"322.0118","REV_AT_EPOCH":"5156","MEAN_MOTION_DOT":"0.00001135","CENTER_NAME":"EARTH","OBJECT_NAME":"STARLINK-1893","MEAN_ELEMENT_THEORY":"SGP4","TIME_SYSTEM":"UTC","MEAN_MOTION_DDOT":"0.0000000000000","OBJECT_TYPE":"PAYLOAD","OBJECT_ID":"2020-074AZ","TLE_LINE2":"2 46786  53.0523  44.6369 0003868 322.0118  38.0598 15.06406294 51562","NORAD_CAT_ID":"46786","RA_OF_ASC_NODE":"44.6369","FILE":"3123736","LAUNCH_DATE":"2020-10-24","BSTAR":"0.00009509200000","CLASSIFICATION_TYPE":"U","EPOCH":"2021-09-22T15:44:10.823712","PERIAPSIS":"544.516","MEAN_MOTION":"15.06406294","DECAY_DATE":null,"COUNTRY_CODE":"US","SEMIMAJOR_AXIS":"6925.329","ELEMENT_SET_NO":"999","GP_ID":"185267786","ECCENTRICITY":"0.00038680","PERIOD":"95.592","MEAN_ANOMALY":"38.0598","EPHEMERIS_TYPE":"0","APOAPSIS":"549.873","RCS_SIZE":"LARGE"},{"APOAPSIS":"550.534","RCS_SIZE":"LARGE","PERIOD":"95.592","EPHEMERIS_TYPE":"0","MEAN_ANOMALY":"126.4669","ELEMENT_SET_NO":"999","GP_ID":"185269037","ECCENTRICITY":"0.00047820","SEMIMAJOR_AXIS":"6925.358","PERIAPSIS":"543.911","EPOCH":"2021-09-22T15:33:34.598304","DECAY_DATE":null,"COUNTRY_CODE":"US","MEAN_MOTION":"15.06397033","LAUNCH_DATE":"2020-10-24","CLASSIFICATION_TYPE":"U","BSTAR":"0.00005093800000","RA_OF_ASC_NODE":"44.6760","FILE":"3123736","TLE_LINE2":"2 46787  53.0510  44.6760 0004782 233.5880 126.4669 15.06397033 51563","NORAD_CAT_ID":"46787","OBJECT_ID":"2020-074BA","OBJECT_TYPE":"PAYLOAD","TIME_SYSTEM":"UTC","MEAN_MOTION_DDOT":"0.0000000000000","MEAN_ELEMENT_THEORY":"SGP4","OBJECT_NAME":"STARLINK-1899","CENTER_NAME":"EARTH","REV_AT_EPOCH":"5156","MEAN_MOTION_DOT":"0.00000476","ARG_OF_PERICENTER":"233.5880","INCLINATION":"53.0510","TLE_LINE1":"1 46787U 20074BA  21265.64831711  .00000476  00000-0  50938-4 0  9998","SITE":"AFETR","REF_FRAME":"TEME"},{"PERIAPSIS":"543.735","EPOCH":"2021-09-22T10:36:21.414528","DECAY_DATE":null,"COUNTRY_CODE":"US","MEAN_MOTION":"15.06398308","LAUNCH_DATE":"2020-10-24","CLASSIFICATION_TYPE":"U","BSTAR":"-0.00000280260000","RA_OF_ASC_NODE":"45.5898","FILE":"3123417","APOAPSIS":"550.703","RCS_SIZE":"LARGE","PERIOD":"95.592","EPHEMERIS_TYPE":"0","MEAN_ANOMALY":"48.1872","ELEMENT_SET_NO":"999","ECCENTRICITY":"0.00050310","GP_ID":"185238591","SEMIMAJOR_AXIS":"6925.354","MEAN_ELEMENT_THEORY":"SGP4","OBJECT_NAME":"STARLINK-1929","CENTER_NAME":"EARTH","REV_AT_EPOCH":"5153","MEAN_MOTION_DOT":"-0.00000325","ARG_OF_PERICENTER":"311.8687","INCLINATION":"53.0593","TLE_LINE1":"1 46788U 20074BB  21265.44191452 -.00000325  00000-0 -28026-5 0  9997","SITE":"AFETR","REF_FRAME":"TEME","NORAD_CAT_ID":"46788","TLE_LINE2":"2 46788  53.0593  45.5898 0005031 311.8687  48.1872 15.06398308 51539","OBJECT_ID":"2020-074BB","OBJECT_TYPE":"PAYLOAD","TIME_SYSTEM":"UTC","MEAN_MOTION_DDOT":"0.0000000000000"},{"MEAN_MOTION_DDOT":"0.0000000000000","TIME_SYSTEM":"UTC","OBJECT_TYPE":"PAYLOAD","OBJECT_ID":"2020-074BC","NORAD_CAT_ID":"46789","TLE_LINE2":"2 46789  53.0541  74.9696 0001949  97.2912 262.8298 15.06393333 51131","REF_FRAME":"TEME","SITE":"AFETR","TLE_LINE1":"1 46789U 20074BC  21265.58196258  .00000696  00000-0  65665-4 0  9990","INCLINATION":"53.0541","ARG_OF_PERICENTER":"97.2912","REV_AT_EPOCH":"5113","MEAN_MOTION_DOT":"0.00000696","CENTER_NAME":"EARTH","OBJECT_NAME":"STARLINK-1930","MEAN_ELEMENT_THEORY":"SGP4","SEMIMAJOR_AXIS":"6925.369","GP_ID":"185267537","ECCENTRICITY":"0.00019490","ELEMENT_SET_NO":"999","MEAN_ANOMALY":"262.8298","EPHEMERIS_TYPE":"0","PERIOD":"95.593","APOAPSIS":"548.584","RCS_SIZE":"LARGE","RA_OF_ASC_NODE":"74.9696","FILE":"3123736","BSTAR":"0.00006566500000","CLASSIFICATION_TYPE":"U","LAUNCH_DATE":"2020-10-24","COUNTRY_CODE":"US","DECAY_DATE":null,"MEAN_MOTION":"15.06393333","EPOCH":"2021-09-22T13:58:01.566912","PERIAPSIS":"545.884"},{"RA_OF_ASC_NODE":"74.1581","FILE":"3123736","LAUNCH_DATE":"2020-10-24","BSTAR":"0.00007315600000","CLASSIFICATION_TYPE":"U","EPOCH":"2021-09-22T18:14:09.560832","PERIAPSIS":"545.775","DECAY_DATE":null,"COUNTRY_CODE":"US","MEAN_MOTION":"15.06396079","SEMIMAJOR_AXIS":"6925.361","ELEMENT_SET_NO":"999","GP_ID":"185268286","ECCENTRICITY":"0.00020940","PERIOD":"95.592","MEAN_ANOMALY":"271.1103","EPHEMERIS_TYPE":"0","RCS_SIZE":"LARGE","APOAPSIS":"548.676","REF_FRAME":"TEME","SITE":"AFETR","TLE_LINE1":"1 46790U 20074BD  21265.75983288  .00000808  00000-0  73156-4 0  9997","INCLINATION":"53.0557","ARG_OF_PERICENTER":"89.0126","REV_AT_EPOCH":"5115","MEAN_MOTION_DOT":"0.00000808","CENTER_NAME":"EARTH","OBJECT_NAME":"STARLINK-1931","MEAN_ELEMENT_THEORY":"SGP4","TIME_SYSTEM":"UTC","MEAN_MOTION_DDOT":"0.0000000000000","OBJECT_TYPE":"PAYLOAD","OBJECT_ID":"2020-074BD","TLE_LINE2":"2 46790  53.0557  74.1581 0002094  89.0126 271.1103 15.06396079 51153","NORAD_CAT_ID":"46790"},{"RA_OF_ASC_NODE":"75.0064","FILE":"3123736","EPOCH":"2021-09-22T13:48:46.110816","PERIAPSIS":"545.889","MEAN_MOTION":"15.06398573","DECAY_DATE":null,"COUNTRY_CODE":"US","LAUNCH_DATE":"2020-10-24","BSTAR":"0.00008043200000","CLASSIFICATION_TYPE":"U","ELEMENT_SET_NO":"999","ECCENTRICITY":"0.00019190","GP_ID":"185268538","SEMIMAJOR_AXIS":"6925.353","RCS_SIZE":"LARGE","APOAPSIS":"548.547","PERIOD":"95.592","MEAN_ANOMALY":"267.6493","EPHEMERIS_TYPE":"0","INCLINATION":"53.0557","ARG_OF_PERICENTER":"92.4715","SITE":"AFETR","REF_FRAME":"TEME","TLE_LINE1":"1 46791U 20074BE  21265.57553369  .00000917  00000-0  80432-4 0  9997","OBJECT_NAME":"STARLINK-1933","MEAN_ELEMENT_THEORY":"SGP4","MEAN_MOTION_DOT":"0.00000917","REV_AT_EPOCH":"5113","CENTER_NAME":"EARTH","OBJECT_TYPE":"PAYLOAD","TIME_SYSTEM":"UTC","MEAN_MOTION_DDOT":"0.0000000000000","TLE_LINE2":"2 46791  53.0557  75.0064 0001919  92.4715 267.6493 15.06398573 51138","NORAD_CAT_ID":"46791","OBJECT_ID":"2020-074BE"},{"ELEMENT_SET_NO":"999","ECCENTRICITY":"0.00016350","GP_ID":"185268766","SEMIMAJOR_AXIS":"6925.360","APOAPSIS":"548.357","RCS_SIZE":"LARGE","PERIOD":"95.592","EPHEMERIS_TYPE":"0","MEAN_ANOMALY":"256.9395","RA_OF_ASC_NODE":"64.2857","FILE":"3123736","PERIAPSIS":"546.093","EPOCH":"2021-09-22T17:38:19.833792","COUNTRY_CODE":"US","DECAY_DATE":null,"MEAN_MOTION":"15.06396246","LAUNCH_DATE":"2020-10-24","CLASSIFICATION_TYPE":"U","BSTAR":"-0.00001529600000","OBJECT_TYPE":"PAYLOAD","TIME_SYSTEM":"UTC","MEAN_MOTION_DDOT":"0.0000000000000","NORAD_CAT_ID":"46792","TLE_LINE2":"2 46792  53.0608  64.2857 0001635 103.1777 256.9395 15.06396246 51293","OBJECT_ID":"2020-074BF","ARG_OF_PERICENTER":"103.1777","INCLINATION":"53.0608","TLE_LINE1":"1 46792U 20074BF  21265.73495178 -.00000509  00000-0 -15296-4 0  9994","REF_FRAME":"TEME","SITE":"AFETR","MEAN_ELEMENT_THEORY":"SGP4","OBJECT_NAME":"STARLINK-1934","CENTER_NAME":"EARTH","REV_AT_EPOCH":"5129","MEAN_MOTION_DOT":"-0.00000509"},{"MEAN_MOTION_DOT":"-0.00000980","REV_AT_EPOCH":"5115","CENTER_NAME":"EARTH","OBJECT_NAME":"STARLINK-1941","MEAN_ELEMENT_THEORY":"SGP4","REF_FRAME":"TEME","SITE":"AFETR","TLE_LINE1":"1 46793U 20074BG  21265.76351846 -.00000980  00000-0 -46926-4 0  9998","INCLINATION":"53.0566","ARG_OF_PERICENTER":"96.5157","OBJECT_ID":"2020-074BG","NORAD_CAT_ID":"46793","TLE_LINE2":"2 46793  53.0566  74.1408 0001882  96.5157 263.6046 15.06394567 51157","TIME_SYSTEM":"UTC","MEAN_MOTION_DDOT":"0.0000000000000","OBJECT_TYPE":"PAYLOAD","LAUNCH_DATE":"2020-10-24","BSTAR":"-0.00004692600000","CLASSIFICATION_TYPE":"U","EPOCH":"2021-09-22T18:19:27.994944","PERIAPSIS":"545.927","DECAY_DATE":null,"COUNTRY_CODE":"US","MEAN_MOTION":"15.06394567","FILE":"3123736","RA_OF_ASC_NODE":"74.1408","PERIOD":"95.592","MEAN_ANOMALY":"263.6046","EPHEMERIS_TYPE":"0","RCS_SIZE":"LARGE","APOAPSIS":"548.534","SEMIMAJOR_AXIS":"6925.365","ELEMENT_SET_NO":"999","GP_ID":"185268037","ECCENTRICITY":"0.00018820"}];
